0 ONEWEB-0401
1 50481U 21132N   23282.43716984  .00000025  00000-0  30607-4 0  9993
2 50481  87.9280 170.7154 0002111  81.9513 278.1858 13.18687522 92228
0 ONEWEB-0402
1 50482U 21132P   23282.70695156 -.00000442  00000-0 -11543-2 0  9992
2 50482  87.9210 170.6715 0002335  70.9141 289.2244 13.18685929 93566
0 ONEWEB-0403
1 50483U 21132Q   23282.42662585 -.00000273  00000-0 -72494-3 0  9997
2 50483  87.9259 170.7199 0001838  84.0970 276.0372 13.18684710 92203
0 ONEWEB-0404
1 50484U 21132R   23282.54453699 -.00000475  00000-0 -13750-2 0  9998
2 50484  87.8984 216.0619 0001701  95.5325 264.5997 13.11416184 87030
0 ONEWEB-0405
1 50485U 21132S   23282.46112845 -.00000018  00000-0 -76712-4 0  9997
2 50485  87.9284 170.7081 0002204  82.6443 277.4940 13.19201776 92608
0 ONEWEB-0406
1 50486U 21132T   23282.43084620 -.00000022  00000-0 -87975-4 0  9992
2 50486  87.9280 170.7166 0001527  91.4039 268.7268 13.18687178 92233
0 ONEWEB-0407
1 50487U 21132U   23282.42452659 -.00000017  00000-0 -75417-4 0  9995
2 50487  87.9280 170.7257 0001887  80.2861 279.8484 13.18684493 92176
0 ONEWEB-0409
1 50488U 21132V   23282.54288521 -.00000845  00000-0 -24192-2 0  9995
2 50488  87.8984 216.0785 0001405  92.6082 267.5207 13.11417110 86921
